ONEWEB-0349             
1 49281U 21090C   25145.04996531  .00000137  00000+0  30607-3 0  9999
2 49281  87.9270 351.7463 0001836  89.8098 270.3246 13.20770923179889
ONEWEB-0353             
1 49282U 21090D   25144.62941664 -.00000050  00000+0 -16946-3 0  9996
2 49282  87.9053   7.0054 0001512  84.6370 275.4932 13.14503170176531
ONEWEB-0356             
1 49283U 21090E   25144.97263968  .00000074  00000+0  14893-3 0  9992
2 49283  87.9269 351.7530 0001915  58.2238 301.9082 13.20771221179878
ONEWEB-0358             
1 49284U 21090F   25144.85109516 -.00000014  00000+0 -67531-4 0  9992
2 49284  87.9270 351.7671 0001925  83.6876 276.4477 13.20770178179298
ONEWEB-0359             
1 49285U 21090G   25144.99949265  .00000087  00000+0  18206-3 0  9993
2 49285  87.9268 351.7502 0002218  85.7695 274.3692 13.20774027180573
ONEWEB-0360             
1 49286U 21090H   25144.98999023  .00000064  00000+0  12577-3 0  9990
2 49286  87.9268 351.7579 0001975  86.5872 273.5487 13.20770376179892
ONEWEB-0361             
1 49287U 21090J   25144.97105043  .00000103  00000+0  22098-3 0  9994
2 49287  87.9269 351.7567 0001796  81.1758 278.9578 13.20770246179881
ONEWEB-0362             
1 49288U 21090K   25145.37433272  .00000100  00000+0  21804-3 0  9999
2 49288  87.9240  22.0849 0001909  88.5030 271.6322 13.19726204176586
